NORAD_CAT_ID,OBJECT_NAME,OBJECT_TYPE,EPOCH,MEAN_MOTION,ECCENTRICITY,INCLINATION,RA_OF_ASC_NODE,ARG_OF_PERICENTER,MEAN_ANOMALY,BSTAR,MEAN_MOTION_DOT,MEAN_MOTION_DDOT,TLE_LINE0,TLE_LINE1,TLE_LINE2,SEMIMAJOR_AXIS,PERIOD,APOGEE,PERIGEE,DECAYED
51812.0,STARLINK-3610,PAYLOAD,2023-05-14 16:04:14,15.08841241,8.57e-05,53.2165,273.0604,77.413,282.6958,0.00013945,1.932e-05,0.0,0 STARLINK-3610,1 51812U 22017AW  23134.66960927  .00001932  00000-0  13945-3 0  9997,2 51812  53.2165 273.0604 0000857  77.4130 282.6958 15.08841241 68586,6917.877,95.437,540.334,539.149,0.0
51812.0,STARLINK-3610,PAYLOAD,2023-05-15 01:36:34,15.08824953,0.0001932,53.2164,271.2724,86.6688,273.4525,-4.1672e-05,-9.51e-06,0.0,0 STARLINK-3610,1 51812U 22017AW  23135.06706830 -.00000951  00000-0 -41672-4 0  9994,2 51812  53.2164 271.2724 0001932  86.6688 273.4525 15.08824953 68762,6917.926,95.439,541.128,538.455,0.0
51812.0,STARLINK-3610,PAYLOAD,2023-05-15 12:44:15,15.08830668,7.17e-05,53.2179,269.1904,80.152,279.9553,3.775e-05,3.13e-06,0.0,0 STARLINK-3610,1 51812U 22017AW  23135.53073975  .00000313  00000-0  37750-4 0  9995,2 51812  53.2179 269.1904 0000717  80.1520 279.9553 15.08830668 68715,6917.909,95.438,540.27,539.278,0.0
51812.0,STARLINK-3610,PAYLOAD,2023-05-15 15:55:01,15.08837972,8.38e-05,53.2163,268.5982,81.5152,278.5935,0.00010976,1.459e-05,0.0,0 STARLINK-3610,1 51812U 22017AW  23135.66321573  .00001459  00000-0  10976-3 0  9991,2 51812  53.2163 268.5982 0000838  81.5152 278.5935 15.08837972 68856,6917.887,95.438,540.331,539.172,0.0
51812.0,STARLINK-3610,PAYLOAD,2023-05-16 12:35:02,15.08828947,0.0001186,53.2159,264.7351,119.6335,240.4775,0.00015517,2.182e-05,0.0,0 STARLINK-3610,1 51812U 22017AW  23136.52434022  .00002182  00000-0  15517-3 0  9991,2 51812  53.2159 264.7351 0001186 119.6335 240.4775 15.08828947 68865,6917.914,95.438,540.6,538.959,0.0
51812.0,STARLINK-3610,PAYLOAD,2023-05-17 01:18:07,15.08840842,8.56e-05,53.2159,262.3564,89.7757,270.3333,5.6078e-05,6.05e-06,0.0,0 STARLINK-3610,1 51812U 22017AW  23137.05425658  .00000605  00000-0  56078-4 0  9991,2 51812  53.2159 262.3564 0000856  89.7757 270.3333 15.08840842 69066,6917.878,95.438,540.335,539.151,0.0
51812.0,STARLINK-3610,PAYLOAD,2023-05-17 15:36:36,15.08826071,0.0001027,53.2162,259.6787,96.2376,263.8733,0.00028339,4.224e-05,0.0,0 STARLINK-3610,1 51812U 22017AW  23137.65042118  .00004224  00000-0  28339-3 0  9992,2 51812  53.2162 259.6787 0001027  96.2376 263.8733 15.08826071 69156,6917.923,95.438,540.498,539.077,0.0
51812.0,STARLINK-3610,PAYLOAD,2023-05-18 01:08:54,15.08838361,8.87e-05,53.216,257.8947,91.749,268.3604,9.7554e-05,1.265e-05,0.0,0 STARLINK-3610,1 51812U 22017AW  23138.04785872  .00001265  00000-0  97554-4 0  9995,2 51812  53.2160 257.8947 0000887  91.7490 268.3604 15.08838361 69211,6917.885,95.438,540.364,539.137,0.0
51812.0,STARLINK-3610,PAYLOAD,2023-05-18 12:16:37,15.08836204,9.68e-05,53.216,255.8125,90.4026,269.7077,2.5529e-05,1.19e-06,0.0,0 STARLINK-3610,1 51812U 22017AW  23138.51154290  .00000119  00000-0  25529-4 0  9991,2 51812  53.2160 255.8125 0000968  90.4026 269.7077 15.08836204 69165,6917.892,95.438,540.427,539.087,0.0
51812.0,STARLINK-3610,PAYLOAD,2023-05-18 20:13:32,15.08843078,0.0001045,53.2157,254.3243,99.5062,260.6048,7.5742e-05,9.18e-06,0.0,0 STARLINK-3610,1 51812U 22017AW  23138.84273676  .00000918  00000-0  75742-4 0  9996,2 51812  53.2157 254.3243 0001045  99.5062 260.6048 15.08843078 69214,6917.871,95.437,540.459,539.013,0.0
51812.0,STARLINK-3610,PAYLOAD,2023-05-19 07:21:14,15.08837715,0.0001274,53.216,252.2434,87.8081,272.3057,6.6051e-05,7.63e-06,0.0,0 STARLINK-3610,1 51812U 22017AW  23139.30642203  .00000763  00000-0  66051-4 0  9995,2 51812  53.2160 252.2434 0001274  87.8081 272.3057 15.08837715 69404,6917.887,95.438,540.634,538.871,0.0
51812.0,STARLINK-3610,PAYLOAD,2023-05-19 12:07:24,15.08838097,9.75e-05,53.2158,251.3509,102.6357,257.4744,5.6946e-05,6.19e-06,0.0,0 STARLINK-3610,1 51812U 22017AW  23139.50514089  .00000619  00000-0  56946-4 0  9999,2 51812  53.2158 251.3509 0000975 102.6357 257.4744 15.08838097 69314,6917.886,95.438,540.426,539.077,0.0
51812.0,STARLINK-3610,PAYLOAD,2023-05-20 13:33:33,15.08853039,0.000114,53.2159,246.5928,85.218,274.8943,0.00014503,2.022e-05,0.0,0 STARLINK-3610,1 51812U 22017AW  23140.56497008  .00002022  00000-0  14503-3 0  9990,2 51812  53.2159 246.5928 0001140  85.2180 274.8943 15.08853039 69598,6917.841,95.437,540.494,538.917,0.0
51812.0,STARLINK-3610,PAYLOAD,2023-05-21 07:02:48,15.08840735,9.76e-05,53.2159,243.3219,102.3541,257.7561,0.00010521,1.387e-05,0.0,0 STARLINK-3610,1 51812U 22017AW  23141.29361722  .00001387  00000-0  10521-3 0  9993,2 51812  53.2159 243.3219 0000976 102.3541 257.7561 15.08840735 69702,6917.878,95.438,540.418,539.068,0.0
51812.0,STARLINK-3610,PAYLOAD,2023-05-21 11:48:58,15.08838455,9.38e-05,53.2164,242.4302,94.6968,265.4131,2.1781e-05,5.9e-07,0.0,0 STARLINK-3610,1 51812U 22017AW  23141.49234084  .00000059  00000-0  21781-4 0  9991,2 51812  53.2164 242.4302 0000938  94.6968 265.4131 15.08838455 69610,6917.885,95.438,540.399,539.101,0.0
51812.0,STARLINK-3610,PAYLOAD,2023-05-21 13:24:21,15.08839652,8.93e-05,53.217,242.1321,94.2997,265.8097,7.7704e-06,-1.64e-06,0.0,0 STARLINK-3610,1 51812U 22017AW  23141.55858014 -.00000164  00000-0  77704-5 0  9998,2 51812  53.2170 242.1321 0000893  94.2997 265.8097 15.08839652 69629,6917.881,95.438,540.364,539.129,0.0
51812.0,STARLINK-3610,PAYLOAD,2023-05-22 10:04:22,15.08836785,9.57e-05,53.2166,238.2675,89.4615,270.6487,-7.1691e-06,-4.02e-06,0.0,0 STARLINK-3610,1 51812U 22017AW  23142.41970463 -.00000402  00000-0 -71691-5 0  9992,2 51812  53.2166 238.2675 0000957  89.4615 270.6487 15.08836785 69874,6917.89,95.438,540.417,539.093,0.0
51812.0,STARLINK-3610,PAYLOAD,2023-05-22 13:15:08,15.08839413,9.73e-05,53.2167,237.6721,94.6645,265.4459,3.9701e-05,3.44e-06,0.0,0 STARLINK-3610,1 51812U 22017AW  23142.55218173  .00000344  00000-0  39701-4 0  9998,2 51812  53.2167 237.6721 0000973  94.6645 265.4459 15.08839413 69770,6917.882,95.438,540.42,539.074,0.0
51812.0,STARLINK-3610,PAYLOAD,2023-05-23 13:05:55,15.08834969,9.64e-05,53.2162,233.2126,98.9137,261.1964,0.00012032,1.627e-05,0.0,0 STARLINK-3610,1 51812U 22017AW  23143.54578547  .00001627  00000-0  12032-3 0  9994,2 51812  53.2162 233.2126 0000964  98.9137 261.1964 15.08834969 70046,6917.896,95.438,540.428,539.094,0.0
51812.0,STARLINK-3610,PAYLOAD,2023-05-24 12:56:43,15.08802802,0.0001167,53.2162,228.7512,106.3159,253.7962,0.00058719,9.06e-05,0.0,0 STARLINK-3610,1 51812U 22017AW  23144.53939512  .00009060  00000-0  58719-3 0  9998,2 51812  53.2162 228.7512 0001167 106.3159 253.7962 15.08802802 70190,6917.994,95.44,540.666,539.052,0.0
51812.0,STARLINK-3610,PAYLOAD,2023-05-25 23:55:12,15.08840334,0.000101,53.2165,222.21,89.2752,270.8356,7.628e-05,9.26e-06,0.0,0 STARLINK-3610,1 51812U 22017AW  23145.99666774  .00000926  00000-0  76280-4 0  9992,2 51812  53.2165 222.2100 0001010  89.2752 270.8356 15.08840334 70414,6917.879,95.438,540.443,539.046,0.0
51812.0,STARLINK-3610,PAYLOAD,2023-05-26 12:38:17,15.08843232,0.0001114,53.2167,219.8328,75.3455,284.7661,5.9693e-05,6.62e-06,0.0,0 STARLINK-3610,1 51812U 22017AW  23146.52658670  .00000662  00000-0  59693-4 0  9994,2 51812  53.2167 219.8328 0001114  75.3455 284.7661 15.08843232 70379,6917.871,95.437,540.506,538.965,0.0
51812.0,STARLINK-3610,PAYLOAD,2023-05-27 10:53:40,15.08841051,0.0001034,53.2164,215.6688,89.1306,270.9805,4.1442e-05,3.72e-06,0.0,0 STARLINK-3610,1 51812U 22017AW  23147.45394635  .00000372  00000-0  41442-4 0  9996,2 51812  53.2164 215.6688 0001034  89.1306 270.9805 15.08841051 70631,6917.877,95.437,540.457,539.027,0.0
51812.0,STARLINK-3610,PAYLOAD,2023-05-27 22:01:22,15.08841144,0.0001002,53.2161,213.5867,88.0993,272.0114,4.2171e-05,3.83e-06,0.0,0 STARLINK-3610,1 51812U 22017AW  23147.91762563  .00000383  00000-0  42171-4 0  9998,2 51812  53.2161 213.5867 0001002  88.0993 272.0114 15.08841144 70582,6917.877,95.437,540.435,539.049,0.0
51812.0,STARLINK-3610,PAYLOAD,2023-05-28 04:22:55,15.08840334,9.97e-05,53.2157,212.397,87.3175,272.7931,3.5933e-05,2.84e-06,0.0,0 STARLINK-3610,1 51812U 22017AW  23148.18258630  .00000284  00000-0  35933-4 0  9991,2 51812  53.2157 212.3970 0000997  87.3175 272.7931 15.08840334 70624,6917.879,95.438,540.434,539.055,0.0
51812.0,STARLINK-3610,PAYLOAD,2023-05-28 10:44:27,15.08842801,0.0001001,53.2159,211.208,85.4383,274.6723,5.3536e-05,5.64e-06,0.0,0 STARLINK-3610,1 51812U 22017AW  23148.44754388  .00000564  00000-0  53536-4 0  9991,2 51812  53.2159 211.2080 0001001  85.4383 274.6723 15.08842801 70668,6917.872,95.437,540.429,539.044,0.0
51812.0,STARLINK-3610,PAYLOAD,2023-05-29 10:35:14,15.08844174,9.97e-05,53.2156,206.7473,83.8706,276.2399,6.3377e-05,7.21e-06,0.0,0 STARLINK-3610,1 51812U 22017AW  23149.44114079  .00000721  00000-0  63377-4 0  9998,2 51812  53.2156 206.7473 0000997  83.8706 276.2399 15.08844174 70936,6917.868,95.437,540.422,539.043,0.0
51812.0,STARLINK-3610,PAYLOAD,2023-05-30 08:50:39,15.08832269,0.0001078,53.2156,202.5847,76.448,283.6633,-1.8736e-05,-5.86e-06,0.0,0 STARLINK-3610,1 51812U 22017AW  23150.36851205 -.00000586  00000-0 -18736-4 0  9990,2 51812  53.2156 202.5847 0001078  76.4480 283.6633 15.08832269 71074,6917.904,95.438,540.515,539.023,0.0
51812.0,STARLINK-3610,PAYLOAD,2023-05-30 10:26:02,15.08833346,0.0001164,53.2163,202.2882,101.4951,258.6172,-1.0189e-05,-4.5e-06,0.0,0 STARLINK-3610,1 51812U 22017AW  23150.43475062 -.00000450  00000-0 -10189-4 0  9995,2 51812  53.2163 202.2882 0001164 101.4951 258.6172 15.08833346 70960,6917.901,95.438,540.571,538.96,0.0
51812.0,STARLINK-3610,PAYLOAD,2023-05-30 19:58:21,15.08834733,0.0001168,53.2164,200.5037,101.5003,258.6121,-1.9332e-05,-5.95e-06,0.0,0 STARLINK-3610,1 51812U 22017AW  23150.83219109 -.00000595  00000-0 -19332-4 0  9996,2 51812  53.2164 200.5037 0001168 101.5003 258.6121 15.08834733 71020,6917.896,95.438,540.569,538.953,0.0
